{
  "type": "FeatureCollection",
  "features": [
    {
      "type": "Feature",
      "properties": {
        "norad_id": 34722,
        "name": "COSMOS 2251 DEB",
        "group": "cosmos-2251-debris",
        "lat": 68.92145085378884,
        "lon": 33.42208805651839,
        "alt_km": 962.6272373805077,
        "timestamp": "2025-12-07T20:38:14.458469+00:00",
        "meta_object_name": "COSMOS 2251 DEB",
        "meta_object_id": "1993-036YQ",
        "meta_epoch": "2025-12-07T00:00:17.612640",
        "meta_mean_motion": 14.11905437,
        "meta_eccentricity": 0.01673586,
        "meta_inclination": 73.8723,
        "meta_ra_of_asc_node": 346.305,
        "meta_arg_of_pericenter": 272.845,
        "meta_mean_anomaly": 114.9644,
        "meta_ephemeris_type": 0,
        "meta_classification_type": "U",
        "meta_norad_cat_id": 34722,
        "meta_element_set_no": 999,
        "meta_rev_at_epoch": 86164,
        "meta_bstar": 0.0014060334,
        "meta_mean_motion_dot": 2.906e-05,
        "meta_mean_motion_ddot": 0,
        "tle_line1": "1 34722U 93036YQ  25341.00020385  .00002906  00000+0  14060-2 0  9991",
        "tle_line2": "2 34722  73.8723 346.3050 0167358 272.8450 114.9644 14.11905437861648"
      },
      "geometry": {
        "type": "Point",
        "coordinates": [
          33.42208805651839,
          68.92145085378884
        ]
      }
    },
    {
      "type": "Feature",
      "properties": {
        "norad_id": 34726,
        "name": "COSMOS 2251 DEB",
        "group": "cosmos-2251-debris",
        "lat": -10.271344108525614,
        "lon": -7.341298248986583,
        "alt_km": 726.6474775989318,
        "timestamp": "2025-12-07T20:38:14.458479+00:00",
        "meta_object_name": "COSMOS 2251 DEB",
        "meta_object_id": "1993-036YU",
        "meta_epoch": "2025-12-07T00:56:41.873856",
        "meta_mean_motion": 14.59449437,
        "meta_eccentricity": 0.00422966,
        "meta_inclination": 74.029,
        "meta_ra_of_asc_node": 357.1979,
        "meta_arg_of_pericenter": 149.7844,
        "meta_mean_anomaly": 210.5774,
        "meta_ephemeris_type": 0,
        "meta_classification_type": "U",
        "meta_norad_cat_id": 34726,
        "meta_element_set_no": 999,
        "meta_rev_at_epoch": 88419,
        "meta_bstar": 0.00067663866,
        "meta_mean_motion_dot": 3.22e-05,
        "meta_mean_motion_ddot": 0,
        "tle_line1": "1 34726U 93036YU  25341.03937354  .00003220  00000+0  67664-3 0  9990",
        "tle_line2": "2 34726  74.0290 357.1979 0042296 149.7844 210.5774 14.59449437884193"
      },
      "geometry": {
        "type": "Point",
        "coordinates": [
          -7.341298248986583,
          -10.271344108525614
        ]
      }
    },
    {
      "type": "Feature",
      "properties": {
        "norad_id": 34728,
        "name": "COSMOS 2251 DEB",
        "group": "cosmos-2251-debris",
        "lat": 27.04550789839564,
        "lon": -90.3319879049523,
        "alt_km": 632.8031920824533,
        "timestamp": "2025-12-07T20:38:14.458489+00:00",
        "meta_object_name": "COSMOS 2251 DEB",
        "meta_object_id": "1993-036YW",
        "meta_epoch": "2025-12-06T05:19:50.065536",
        "meta_mean_motion": 14.70746647,
        "meta_eccentricity": 0.00408299,
        "meta_inclination": 74.0179,
        "meta_ra_of_asc_node": 264.4359,
        "meta_arg_of_pericenter": 63.9353,
        "meta_mean_anomaly": 296.6012,
        "meta_ephemeris_type": 0,
        "meta_classification_type": "U",
        "meta_norad_cat_id": 34728,
        "meta_element_set_no": 999,
        "meta_rev_at_epoch": 88704,
        "meta_bstar": 0.0014731687,
        "meta_mean_motion_dot": 9.083e-05,
        "meta_mean_motion_ddot": 0,
        "tle_line1": "1 34728U 93036YW  25340.22210724  .00009083  00000+0  14732-2 0  9997",
        "tle_line2": "2 34728  74.0179 264.4359 0040829  63.9353 296.6012 14.70746647887048"
      },
      "geometry": {
        "type": "Point",
        "coordinates": [
          -90.3319879049523,
          27.04550789839564
        ]
      }
    },
    {
      "type": "Feature",
      "properties": {
        "norad_id": 34729,
        "name": "COSMOS 2251 DEB",
        "group": "cosmos-2251-debris",
        "lat": -13.353540166694685,
        "lon": -168.00413093830335,
        "alt_km": 621.6132211758995,
        "timestamp": "2025-12-07T20:38:14.458499+00:00",
        "meta_object_name": "COSMOS 2251 DEB",
        "meta_object_id": "1993-036YX",
        "meta_epoch": "2025-12-07T02:06:03.685824",
        "meta_mean_motion": 14.82556427,
        "meta_eccentricity": 0.00119772,
        "meta_inclination": 74.0181,
        "meta_ra_of_asc_node": 9.6234,
        "meta_arg_of_pericenter": 132.1959,
        "meta_mean_anomaly": 260.9747,
        "meta_ephemeris_type": 0,
        "meta_classification_type": "U",
        "meta_norad_cat_id": 34729,
        "meta_element_set_no": 999,
        "meta_rev_at_epoch": 88374,
        "meta_bstar": 0.0026992517,
        "meta_mean_motion_dot": 0.00021771,
        "meta_mean_motion_ddot": 0,
        "tle_line1": "1 34729U 93036YX  25341.08754266  .00021771  00000+0  26993-2 0  9997",
        "tle_line2": "2 34729  74.0181   9.6234 0011977 132.1959 260.9747 14.82556427883746"
      },
      "geometry": {
        "type": "Point",
        "coordinates": [
          -168.00413093830335,
          -13.353540166694685
        ]
      }
    },
    {
      "type": "Feature",
      "properties": {
        "norad_id": 34732,
        "name": "COSMOS 2251 DEB",
        "group": "cosmos-2251-debris",
        "lat": -37.09901184175481,
        "lon": 89.80991342673953,
        "alt_km": 729.2188196029956,
        "timestamp": "2025-12-07T20:38:14.458509+00:00",
        "meta_object_name": "COSMOS 2251 DEB",
        "meta_object_id": "1993-036ZA",
        "meta_epoch": "2025-12-06T15:02:21.684768",
        "meta_mean_motion": 14.47289594,
        "meta_eccentricity": 0.00404754,
        "meta_inclination": 74.0448,
        "meta_ra_of_asc_node": 104.6087,
        "meta_arg_of_pericenter": 256.7471,
        "meta_mean_anomaly": 121.1411,
        "meta_ephemeris_type": 0,
        "meta_classification_type": "U",
        "meta_norad_cat_id": 34732,
        "meta_element_set_no": 999,
        "meta_rev_at_epoch": 88055,
        "meta_bstar": 0.00029482269,
        "meta_mean_motion_dot": 1.062e-05,
        "meta_mean_motion_ddot": 0,
        "tle_line1": "1 34732U 93036ZA  25340.62663987  .00001062  00000+0  29482-3 0  9997",
        "tle_line2": "2 34732  74.0448 104.6087 0040475 256.7471 121.1411 14.47289594880556"
      },
      "geometry": {
        "type": "Point",
        "coordinates": [
          89.80991342673953,
          -37.09901184175481
        ]
      }
    },
    {
      "type": "Feature",
      "properties": {
        "norad_id": 34736,
        "name": "COSMOS 2251 DEB",
        "group": "cosmos-2251-debris",
        "lat": 9.921615142975735,
        "lon": -135.99548392546765,
        "alt_km": 449.97436046198163,
        "timestamp": "2025-12-07T20:38:14.458519+00:00",
        "meta_object_name": "COSMOS 2251 DEB",
        "meta_object_id": "1993-036ZE",
        "meta_epoch": "2025-12-07T04:20:27.043584",
        "meta_mean_motion": 15.42444606,
        "meta_eccentricity": 0.00166747,
        "meta_inclination": 74.0024,
        "meta_ra_of_asc_node": 48.3568,
        "meta_arg_of_pericenter": 350.8841,
        "meta_mean_anomaly": 9.2062,
        "meta_ephemeris_type": 0,
        "meta_classification_type": "U",
        "meta_norad_cat_id": 34736,
        "meta_element_set_no": 999,
        "meta_rev_at_epoch": 88362,
        "meta_bstar": 0.0091488726,
        "meta_mean_motion_dot": 0.00419832,
        "meta_mean_motion_ddot": 0,
        "tle_line1": "1 34736U 93036ZE  25341.18086856  .00419832  00000+0  91489-2 0  9990",
        "tle_line2": "2 34736  74.0024  48.3568 0016674 350.8841   9.2062 15.42444606883621"
      },
      "geometry": {
        "type": "Point",
        "coordinates": [
          -135.99548392546765,
          9.921615142975735
        ]
      }
    },
    {
      "type": "Feature",
      "properties": {
        "norad_id": 34738,
        "name": "COSMOS 2251 DEB",
        "group": "cosmos-2251-debris",
        "lat": 10.615501617935296,
        "lon": 155.46681612083975,
        "alt_km": 728.2179144061465,
        "timestamp": "2025-12-07T20:38:14.458529+00:00",
        "meta_object_name": "COSMOS 2251 DEB",
        "meta_object_id": "1993-036ZG",
        "meta_epoch": "2025-12-06T21:54:43.378848",
        "meta_mean_motion": 14.46280761,
        "meta_eccentricity": 0.00472403,
        "meta_inclination": 74.0142,
        "meta_ra_of_asc_node": 154.1561,
        "meta_arg_of_pericenter": 301.5148,
        "meta_mean_anomaly": 181.0495,
        "meta_ephemeris_type": 0,
        "meta_classification_type": "U",
        "meta_norad_cat_id": 34738,
        "meta_element_set_no": 999,
        "meta_rev_at_epoch": 87774,
        "meta_bstar": 0.00053304795,
        "meta_mean_motion_dot": 1.909e-05,
        "meta_mean_motion_ddot": 0,
        "tle_line1": "1 34738U 93036ZG  25340.91300207  .00001909  00000+0  53305-3 0  9999",
        "tle_line2": "2 34738  74.0142 154.1561 0047240 301.5148 181.0495 14.46280761877747"
      },
      "geometry": {
        "type": "Point",
        "coordinates": [
          155.46681612083975,
          10.615501617935296
        ]
      }
    }
  ]
}